GLOBALSTAR M080         
1 38041U 11080B   26200.73040743 -.00000088  00000+0  89597-4 0  9992
2 38041  52.0062 279.9415 0000301  72.9351 102.9898 12.62257617672990
GLOBALSTAR M082         
1 38042U 11080C   26200.82402596 -.00000102  00000+0  10297-4 0  9999
2 38042  52.0053 235.1599 0000194  61.6484 109.9483 12.62264337673715
GLOBALSTAR M092         
1 38043U 11080D   26200.79617860 -.00000084  00000+0  11237-3 0  9991
2 38043  52.0106 325.6424 0000747 110.4925  53.9144 12.62267908672161
GLOBALSTAR M090         
1 38044U 11080E   26200.27627958 -.00000098  00000+0  30166-4 0  9992
2 38044  52.0097 230.7931 0000390  84.5649 355.6327 12.62269627673760
GLOBALSTAR M086         
1 38045U 11080F   26200.36181826 -.00000106  00000+0 -14247-4 0  9995
2 38045  51.9874 230.4091 0001434 117.6917 255.3965 12.62287883673726
GLOBALSTAR M097         
1 39072U 13005A   26200.86588881 -.00000101  00000+0  16628-4 0  9991
2 39072  52.0032 143.8578 0000532  44.8817 315.2093 12.62271285621034
GLOBALSTAR M093         
1 39073U 13005B   26200.83914245 -.00000088  00000+0  87268-4 0  9998
2 39073  52.0097 137.2990 0000758  50.9879 309.1055 12.62266369620987
GLOBALSTAR M094         
1 39074U 13005C   26200.83900198 -.00000097  00000+0  35681-4 0  9993
2 39074  51.9969  51.3842 0001037  70.2672 289.8306 12.62264286622591
GLOBALSTAR M096         
1 39075U 13005D   26200.69415767 -.00000085  00000+0  10589-3 0  9997
2 39075  52.0075 100.6523 0000819  50.8016 309.2924 12.62265817621491
GLOBALSTAR M078         
1 39076U 13005E   26200.66729997 -.00000111  00000+0 -42857-4 0  9993
2 39076  51.9846 184.6993 0000945 351.1824   8.9026 12.62260097620112
GLOBALSTAR M095         
1 39077U 13005F   26200.37723299 -.00000112  00000+0 -46915-4 0  9991
2 39077  52.0053 183.2316 0000551  19.9475 340.1413 12.62264091619930
GLOBALSTAR M087         
1 52888U 22064A   26200.78624632 -.00000085  00000+0  10217-3 0  9990
2 52888  52.0016 323.2073 0000910  90.2315 269.8656 12.62269430195256
